IRIDIUM 155             
1 43573U 18061E   20179.14721224  .00000047  00000-0  98077-5 0  9997
2 43573  86.3980 248.1359 0001726  90.2930 269.8464 14.34217093100744
IRIDIUM 154             
1 43574U 18061F   20179.47703237  .00000047  00000-0  97275-5 0  9997
2 43574  86.3983 248.0283 0002608  90.8461 269.3034 14.34218306100845
IRIDIUM 163             
1 43575U 18061G   20179.45798827  .00000048  00000-0  10215-4 0  9994
2 43575  86.3981 248.0178 0002675 106.3102 253.8388 14.34219541100815
IRIDIUM 156             
1 43576U 18061H   20179.43260909  .00000055  00000-0  12545-4 0  9994
2 43576  86.3981 248.0331 0002155 102.6046 257.5391 14.34219609100793
IRIDIUM 164             
1 43577U 18061J   20179.48337221  .00000052  00000-0  11461-4 0  9995
2 43577  86.3983 248.0192 0002572  94.3552 265.7937 14.34217768100851
IRIDIUM 159             
1 43578U 18061K   20179.17257662  .00000051  00000-0  11056-4 0  9991
2 43578  86.3980 248.1314 0002516  92.5399 267.6085 14.34218317100770
IRIDIUM 180             
1 43922U 19002A   20179.10232111  .00000064  00000-0  15914-4 0  9996
2 43922  86.3986 185.0646 0003479  91.5191 268.6403 14.34217318 76377
IRIDIUM 176             
1 43923U 19002B   20179.14329118  .00000086  00000-0  96436-5 0  9998
2 43923  86.6122 185.0732 0002722  90.5496 269.6033 14.72250064 78353
IRIDIUM 168             
1 43924U 19002C   20179.09596480  .00000061  00000-0  14896-4 0  9993
2 43924  86.3988 185.0826 0002609  87.1583 272.9911 14.34217341 76357
IRIDIUM 173             
1 43925U 19002D   20179.08326828  .00000058  00000-0  13716-4 0  9996
2 43925  86.3984 185.0655 0002532  89.3653 270.7833 14.34219846 76341
IRIDIUM 169             
1 43926U 19002E   20179.40064384  .00000045  00000-0  83102-5 0  9992
2 43926  86.4246 216.4800 0003954 345.1002  15.0079 14.38607280 76692
IRIDIUM 172             
1 43927U 19002F   20179.07693316  .00000062  00000-0  15131-4 0  9994
2 43927  86.3986 185.0693 0002664  89.3104 270.8397 14.34219722 76343
IRIDIUM 175             
1 43928U 19002G   20179.40898107  .00000085  00000-0  95711-5 0  9995
2 43928  86.6107 184.8523 0001922 105.8111 254.3318 14.72250230 78386
IRIDIUM 171             
1 43929U 19002H   20179.40674288  .00000060  00000-0  14314-4 0  9990
2 43929  86.3995 184.9955 0002591  86.7556 273.3936 14.34218931 76387
IRIDIUM 170             
1 43930U 19002J   20179.42132125  .00000088  00000-0  10062-4 0  9999
2 43930  86.6123 184.9641 0002607  96.5695 263.5818 14.72251370 78409
IRIDIUM 167             
1 43931U 19002K   20179.12134671  .00000063  00000-0  15471-4 0  9997
2 43931  86.3986 185.0539 0003324  89.3365 270.8211 14.34217815 76346
